,program_name,program_type,address,Link,lat,lon,color
0,Haley House,Food,"23 Dartmouth St, Boston, MA 02116",https://haleyhouse.org/,42.34372140000001,-71.0739074,#9FE2BF
1,East Boston Community Soup,Food,"28 Paris St, Boston, MA 02128",https://ebcsk.org/,42.3700527,-71.04016589999999,#9FE2BF
2,Boston HERC,Education,"62 Northampton St, Boston, MA 02118",https://www.bostonherc.org/mission-and-values/,42.3344855,-71.076011,#40E0D0
3,Boston University Upward Bound,Education,"2 Silber Way, Boston, MA 02215",https://www.bu.edu/ub/,42.3496967,-71.1008518,#40E0D0
4,St. Francis House,Shelter,"39 Boylston StBoston, MA 02116",https://stfrancishouse.org/,42.3524148,-71.06353659999999,#DFFF00
5,HomeBase,Shelter,"1411 Tremont Street, Boston, MA 02120-3401",https://www.metrohousingboston.org/what-we-do/specialized-services/homebase/,42.3318595,-71.0956305,#DFFF00
6,Fenway Health,Healthcare,"1340 Boylston Street, Boston, MA 02215",https://fenwayhealth.org/about/history/,42.3440746,-71.0989723,#FF7F50
7,Boston Healthcare for the Homeless program,Healthcare,"780 Albany Street, Boston, MA 02118",https://www.bhchp.org/,42.3336641,-71.073056,#FF7F50
8,Boston Breastfeeding ,Maternal Support,"260 Washington Street, Dorchester",https://bostonbreastfeeding.weebly.com/greater-boston-calendar.html,42.30160559999999,-71.0766077,#CCCCFF
9,Boston Children's Hospital Maternal Fetal Care,Maternal Support,"300 Longwood Ave, Boston, MA 02115",https://www.childrenshospital.org/programs/maternal-fetal-care-center/research-innovation,42.3375584,-71.1055611,#CCCCFF
10,Massachusetts Behavioral Health Access (MABHA),Mental Support,"1000 Washington St Ste 310, Boston, MA 02118",https://www.mabhaccess.com/Home.aspx,42.3458526,-71.0643498,#DE3163
11,Solomon Carter Fuller Mental Health Center,Mental Support,"85 E Newton St, Boston, MA 02118",https://www.mass.gov/locations/metro-boston-mental-health-unit-at-dr-solomon-carter-fuller-mental-health-center,42.3362574,-71.070829,#DE3163
12,Boston Maternal Fetal Clinic,Maternal Support,"CHL Monan Off, 1 Brookline Pl, Brookline, MA 02445",http://www.bostonmfm.org/,42.332834,-71.1150208,#CCCCFF
13,Yawkey Child Care Center,Child Care,"185 Columbia Road, Dorchester, MA 02121",https://www.ccab.org/family-youth-services/child-care-services/,42.3062543,-71.0767997,#6495ED
14,Lynn Child Care Center,Child Care,"37 North Federal Street, Lynn, MA 01905",https://www.ccab.org/family-youth-services/child-care-services/,42.46774,-70.9673715,#6495ED
15,Malden Early Education and Learning Program,Child Care,"77 Salem Street, Malden, MA 02148",https://www.ccab.org/family-youth-services/child-care-services/,42.4264758,-71.0645408,#6495ED
16,Peabody Child Care Center,Child Care,"13 Pulaski Street, Peabody, MA 01960",https://www.ccab.org/family-youth-services/child-care-services/,42.5352717,-70.927607,#6495ED
17,Laboure Child Care Center,Child Care,"275 West Broadway, Boston, MA 02127",https://www.ccab.org/family-youth-services/child-care-services/,42.3387921,-71.0514018,#6495ED
18,Family Child Care Boston West,Child Care,"6 Pleasant Street, Suite 200, Malden, MA 02148",https://www.ccab.org/family-youth-services/child-care-services/,42.42629609999999,-71.0676757,#6495ED
19,Packages of Hope,Food,"550 Dudley Street, Roxbury, MA 02119",https://www.lilyshopefoundation.org/packageofhope,42.32161259999999,-71.07209950000001,#9FE2BF
20,MassHire Downtown Boston Career Center,Employment,75 Federal St 3rd Floor,https://www.masshiredowntownboston.org/,42.3549953,-71.05682039999999,#FFBF00
21,Operation ABLE,Employment,98 N Washington St Suite 200,https://operationable.net/,42.3658676,-71.0586395,#FFBF00
22,Project Place,Employment,1145 Washington St,https://projectplace.org/,42.1815845,-71.2033622,#FFBF00
